[{"OBJECT_NAME":"KOSEN-1","OBJECT_ID":"2021-102H","EPOCH":"2026-03-09T22:29:54.100608","MEAN_MOTION":15.25323573,"ECCENTRICITY":0.00138659,"INCLINATION":97.3334,"RA_OF_ASC_NODE":113.0569,"ARG_OF_PERICENTER":191.9191,"MEAN_ANOMALY":168.1721,"EPHEMERIS_TYPE":0,"CLASSIFICATION_TYPE":"U","NORAD_CAT_ID":49402,"ELEMENT_SET_NO":999,"REV_AT_EPOCH":23888,"BSTAR":0.00040411561,"MEAN_MOTION_DOT":0.00010142,"MEAN_MOTION_DDOT":0},{"OBJECT_NAME":"STARLINK-35698","OBJECT_ID":"2025-262AB","EPOCH":"2026-03-09T23:18:43.789824","MEAN_MOTION":15.27609095,"ECCENTRICITY":0.0001202,"INCLINATION":42.9986,"RA_OF_ASC_NODE":294.2145,"ARG_OF_PERICENTER":312.2303,"MEAN_ANOMALY":47.8446,"EPHEMERIS_TYPE":0,"CLASSIFICATION_TYPE":"U","NORAD_CAT_ID":66481,"ELEMENT_SET_NO":999,"REV_AT_EPOCH":1895,"BSTAR":0.0009482626,"MEAN_MOTION_DOT":0.00025947,"MEAN_MOTION_DDOT":0}]
